[{"OBJECT_NAME":"STARLINK-3856","OBJECT_ID":"2022-049J","EPOCH":"2026-03-09T06:41:11.745024","MEAN_MOTION":15.08850733,"ECCENTRICITY":0.00015241,"INCLINATION":53.2179,"RA_OF_ASC_NODE":60.9676,"ARG_OF_PERICENTER":87.1423,"MEAN_ANOMALY":272.9744,"EPHEMERIS_TYPE":0,"CLASSIFICATION_TYPE":"U","NORAD_CAT_ID":52459,"ELEMENT_SET_NO":999,"REV_AT_EPOCH":21218,"BSTAR":0.00021236285,"MEAN_MOTION_DOT":3.094e-5,"MEAN_MOTION_DDOT":0},{"OBJECT_NAME":"KUIPER-00148","OBJECT_ID":"2025-217H","EPOCH":"2026-03-09T06:36:19.446048","MEAN_MOTION":15.09536529,"ECCENTRICITY":0.00081087,"INCLINATION":51.8794,"RA_OF_ASC_NODE":26.5769,"ARG_OF_PERICENTER":351.8096,"MEAN_ANOMALY":8.2745,"EPHEMERIS_TYPE":0,"CLASSIFICATION_TYPE":"U","NORAD_CAT_ID":65769,"ELEMENT_SET_NO":999,"REV_AT_EPOCH":2507,"BSTAR":0.00098730243,"MEAN_MOTION_DOT":0.00015783,"MEAN_MOTION_DDOT":0}]
